{"type": "FeatureCollection", "features": [ {"type": "Feature", "properties": {"norad_id": 32260, "name": "GPS BIIRM-4 (PRN 15)", "group": "gnss", "lat": -43.464611046304604, "lon": -49.29130497258906, "alt_km": 20573.09037596916, "timestamp": "2025-12-27T12:55:14.745828+00:00", "meta": {"OBJECT_NAME": "GPS BIIRM-4 (PRN 15)", "OBJECT_ID": "2007-047A", "EPOCH": "2025-12-23T05:22:00.882048", "MEAN_MOTION": 2.00564099, "ECCENTRICITY": 0.01640403, "INCLINATION": 53.9621, "RA_OF_ASC_NODE": 87.3254, "ARG_OF_PERICENTER": 85.3777, "MEAN_ANOMALY": 276.5133, "EPHEMERIS_TYPE": 0, "CLASSIFICATION_TYPE": "U", "NORAD_CAT_ID": 32260, "ELEMENT_SET_NO": 999, "REV_AT_EPOCH": 13328, "BSTAR": 0, "MEAN_MOTION_DOT": -6e-08, "MEAN_MOTION_DDOT": 0}, "tle": {"line1": "1 32260U 07047A   25357.22362132 -.00000006  00000+0  00000+0 0  9999", "line2": "2 32260  53.9621  87.3254 0164040  85.3777 276.5133  2.00564099133281"}}, "geometry": {"type": "Point", "coordinates": [-49.29130497258906, -43.464611046304604]}}, {"type": "Feature", "properties": {"norad_id": 32275, "name": "COSMOS 2433 (720)", "group": "gnss", "lat": -61.76781009837599, "lon": -95.64859222659275, "alt_km": 19124.689204044207, "timestamp": "2025-12-27T12:55:14.745841+00:00", "meta": {"OBJECT_NAME": "COSMOS 2433 (720)", "OBJECT_ID": "2007-052A", "EPOCH": "2025-12-26T05:29:12.755904", "MEAN_MOTION": 2.13104171, "ECCENTRICITY": 0.0005081, "INCLINATION": 65.6759, "RA_OF_ASC_NODE": 321.753, "ARG_OF_PERICENTER": 257.4758, "MEAN_ANOMALY": 102.4712, "EPHEMERIS_TYPE": 0, "CLASSIFICATION_TYPE": "U", "NORAD_CAT_ID": 32275, "ELEMENT_SET_NO": 999, "REV_AT_EPOCH": 14137, "BSTAR": 0, "MEAN_MOTION_DOT": -3.3e-07, "MEAN_MOTION_DDOT": 0}, "tle": {"line1": "1 32275U 07052A   25360.22861986 -.00000033  00000+0  00000+0 0  9996", "line2": "2 32275  65.6759 321.7530 0005081 257.4758 102.4712  2.13104171141375"}}, "geometry": {"type": "Point", "coordinates": [-95.64859222659275, -61.76781009837599]}}, {"type": "Feature", "properties": {"norad_id": 32276, "name": "COSMOS 2432 (719)", "group": "gnss", "lat": -43.521591647357184, "lon": 167.22388406588715, "alt_km": 19133.182752039844, "timestamp": "2025-12-27T12:55:14.745854+00:00", "meta": {"OBJECT_NAME": "COSMOS 2432 (719)", "OBJECT_ID": "2007-052B", "EPOCH": "2025-12-27T06:49:58.250208", "MEAN_MOTION": 2.13103316, "ECCENTRICITY": 0.00114333, "INCLINATION": 65.6913, "RA_OF_ASC_NODE": 321.8424, "ARG_OF_PERICENTER": 315.4046, "MEAN_ANOMALY": 79.1571, "EPHEMERIS_TYPE": 0, "CLASSIFICATION_TYPE": "U", "NORAD_CAT_ID": 32276, "ELEMENT_SET_NO": 999, "REV_AT_EPOCH": 14142, "BSTAR": 0, "MEAN_MOTION_DOT": -3.6e-07, "MEAN_MOTION_DDOT": 0}, "tle": {"line1": "1 32276U 07052B   25361.28470197 -.00000036  00000+0  00000+0 0  9997", "line2": "2 32276  65.6913 321.8424 0011433 315.4046  79.1571  2.13103316141423"}}, "geometry": {"type": "Point", "coordinates": [167.22388406588715, -43.521591647357184]}}, {"type": "Feature", "properties": {"norad_id": 32384, "name": "GPS BIIRM-5 (PRN 29)", "group": "gnss", "lat": 5.080336111497111, "lon": -75.4104509408495, "alt_km": 20259.420504339487, "timestamp": "2025-12-27T12:55:14.745867+00:00", "meta": {"OBJECT_NAME": "GPS BIIRM-5 (PRN 29)", "OBJECT_ID": "2007-062A", "EPOCH": "2025-12-26T06:34:08.123232", "MEAN_MOTION": 2.00549336, "ECCENTRICITY": 0.0031409, "INCLINATION": 55.1705, "RA_OF_ASC_NODE": 281.103, "ARG_OF_PERICENTER": 162.2528, "MEAN_ANOMALY": 11.0381, "EPHEMERIS_TYPE": 0, "CLASSIFICATION_TYPE": "U", "NORAD_CAT_ID": 32384, "ELEMENT_SET_NO": 999, "REV_AT_EPOCH": 13204, "BSTAR": 0, "MEAN_MOTION_DOT": -2.8e-07, "MEAN_MOTION_DDOT": 0}, "tle": {"line1": "1 32384U 07062A   25360.27370513 -.00000028  00000+0  00000+0 0  9998", "line2": "2 32384  55.1705 281.1030 0031409 162.2528  11.0381  2.00549336132049"}}, "geometry": {"type": "Point", "coordinates": [-75.4104509408495, 5.080336111497111]}}, {"type": "Feature", "properties": {"norad_id": 32393, "name": "COSMOS 2434 (721)", "group": "gnss", "lat": 4.168862275370091, "lon": 15.696038352275346, "alt_km": 19132.719549429814, "timestamp": "2025-12-27T12:55:14.745879+00:00", "meta": {"OBJECT_NAME": "COSMOS 2434 (721)", "OBJECT_ID": "2007-065A", "EPOCH": "2025-12-27T02:08:22.083936", "MEAN_MOTION": 2.13101378, "ECCENTRICITY": 0.0004806, "INCLINATION": 64.316, "RA_OF_ASC_NODE": 197.7187, "ARG_OF_PERICENTER": 72.1868, "MEAN_ANOMALY": 118.5002, "EPHEMERIS_TYPE": 0, "CLASSIFICATION_TYPE": "U", "NORAD_CAT_ID": 32393, "ELEMENT_SET_NO": 999, "REV_AT_EPOCH": 14010, "BSTAR": 0, "MEAN_MOTION_DOT": 1.2e-06, "MEAN_MOTION_DDOT": 0}, "tle": {"line1": "1 32393U 07065A   25361.08914449  .00000120  00000+0  00000+0 0  9995", "line2": "2 32393  64.3160 197.7187 0004806  72.1868 118.5002  2.13101378140101"}}, "geometry": {"type": "Point", "coordinates": [15.696038352275346, 4.168862275370091]}}, {"type": "Feature", "properties": {"norad_id": 32395, "name": "COSMOS 2436 (723)", "group": "gnss", "lat": -45.160067544291984, "lon": 168.83645841793526, "alt_km": 19114.198265343934, "timestamp": "2025-12-27T12:55:14.745891+00:00", "meta": {"OBJECT_NAME": "COSMOS 2436 (723)", "OBJECT_ID": "2007-065C", "EPOCH": "2025-12-26T09:51:08.082144", "MEAN_MOTION": 2.13100172, "ECCENTRICITY": 0.0017813, "INCLINATION": 64.3246, "RA_OF_ASC_NODE": 197.8121, "ARG_OF_PERICENTER": 10.2944, "MEAN_ANOMALY": 152.7871, "EPHEMERIS_TYPE": 0, "CLASSIFICATION_TYPE": "U", "NORAD_CAT_ID": 32395, "ELEMENT_SET_NO": 999, "REV_AT_EPOCH": 14004, "BSTAR": 0, "MEAN_MOTION_DOT": 1.14e-06, "MEAN_MOTION_DDOT": 0}, "tle": {"line1": "1 32395U 07065C   25360.41051021  .00000114  00000+0  00000+0 0  9994", "line2": "2 32395  64.3246 197.8121 0017813  10.2944 152.7871  2.13100172140045"}}, "geometry": {"type": "Point", "coordinates": [168.83645841793526, -45.160067544291984]}}, {"type": "Feature", "properties": {"norad_id": 32711, "name": "GPS BIIRM-6 (PRN 07)", "group": "gnss", "lat": -48.61910503014346, "lon": 102.60347524972515, "alt_km": 19818.19000653783, "timestamp": "2025-12-27T12:55:14.745904+00:00", "meta": {"OBJECT_NAME": "GPS BIIRM-6 (PRN 07)", "OBJECT_ID": "2008-012A", "EPOCH": "2025-12-26T15:12:37.851552", "MEAN_MOTION": 2.00566161, "ECCENTRICITY": 0.02030689, "INCLINATION": 54.4786, "RA_OF_ASC_NODE": 156.8183, "ARG_OF_PERICENTER": 245.1136, "MEAN_ANOMALY": 112.7544, "EPHEMERIS_TYPE": 0, "CLASSIFICATION_TYPE": "U", "NORAD_CAT_ID": 32711, "ELEMENT_SET_NO": 999, "REV_AT_EPOCH": 13029, "BSTAR": 0, "MEAN_MOTION_DOT": 1.07e-06, "MEAN_MOTION_DDOT": 0}, "tle": {"line1": "1 32711U 08012A   25360.63377143  .00000107  00000+0  00000+0 0  9991", "line2": "2 32711  54.4786 156.8183 0203068 245.1136 112.7544  2.00566161130299"}}, "geometry": {"type": "Point", "coordinates": [102.60347524972515, -48.61910503014346]}}, {"type": "Feature", "properties": {"norad_id": 35752, "name": "GPS BIIRM-8 (PRN 05)", "group": "gnss", "lat": -39.21196370041931, "lon": 0.9573940263276584, "alt_km": 20276.892771658706, "timestamp": "2025-12-27T12:55:14.745916+00:00", "meta": {"OBJECT_NAME": "GPS BIIRM-8 (PRN 05)", "OBJECT_ID": "2009-043A", "EPOCH": "2025-12-26T02:26:22.079616", "MEAN_MOTION": 2.00564782, "ECCENTRICITY": 0.00515557, "INCLINATION": 56.1002, "RA_OF_ASC_NODE": 34.2563, "ARG_OF_PERICENTER": 81.6915, "MEAN_ANOMALY": 271.8027, "EPHEMERIS_TYPE": 0, "CLASSIFICATION_TYPE": "U", "NORAD_CAT_ID": 35752, "ELEMENT_SET_NO": 999, "REV_AT_EPOCH": 11988, "BSTAR": 0, "MEAN_MOTION_DOT": -5.1e-07, "MEAN_MOTION_DDOT": 0}, "tle": {"line1": "1 35752U 09043A   25360.10164444 -.00000051  00000+0  00000+0 0  9993", "line2": "2 35752  56.1002  34.2563 0051555  81.6915 271.8027  2.00564782119880"}}, "geometry": {"type": "Point", "coordinates": [0.9573940263276584, -39.21196370041931]}}, {"type": "Feature", "properties": {"norad_id": 36111, "name": "COSMOS 2456 (730)", "group": "gnss", "lat": -24.75695088061558, "lon": 64.38189827607695, "alt_km": 19125.80659626869, "timestamp": "2025-12-27T12:55:14.745928+00:00", "meta": {"OBJECT_NAME": "COSMOS 2456 (730)", "OBJECT_ID": "2009-070A", "EPOCH": "2025-12-27T04:41:41.219808", "MEAN_MOTION": 2.13103691, "ECCENTRICITY": 0.00037027, "INCLINATION": 64.9075, "RA_OF_ASC_NODE": 76.844, "ARG_OF_PERICENTER": 295.0065, "MEAN_ANOMALY": 134.5252, "EPHEMERIS_TYPE": 0, "CLASSIFICATION_TYPE": "U", "NORAD_CAT_ID": 36111, "ELEMENT_SET_NO": 999, "REV_AT_EPOCH": 12476, "BSTAR": 0, "MEAN_MOTION_DOT": -1.5e-07, "MEAN_MOTION_DDOT": 0}, "tle": {"line1": "1 36111U 09070A   25361.19561597 -.00000015  00000+0  00000+0 0  9993", "line2": "2 36111  64.9075  76.8440 0003702 295.0065 134.5252  2.13103691124761"}}, "geometry": {"type": "Point", "coordinates": [64.38189827607695, -24.75695088061558]}}, {"type": "Feature", "properties": {"norad_id": 36112, "name": "COSMOS 2457 (733)", "group": "gnss", "lat": 62.583471859810274, "lon": -167.82120698469885, "alt_km": 19118.090249393863, "timestamp": "2025-12-27T12:55:14.745941+00:00", "meta": {"OBJECT_NAME": "COSMOS 2457 (733)", "OBJECT_ID": "2009-070B", "EPOCH": "2025-12-26T13:03:04.060800", "MEAN_MOTION": 2.13101072, "ECCENTRICITY": 0.0004395, "INCLINATION": 64.8927, "RA_OF_ASC_NODE": 76.7135, "ARG_OF_PERICENTER": 164.2484, "MEAN_ANOMALY": 254.2411, "EPHEMERIS_TYPE": 0, "CLASSIFICATION_TYPE": "U", "NORAD_CAT_ID": 36112, "ELEMENT_SET_NO": 999, "REV_AT_EPOCH": 12475, "BSTAR": 0, "MEAN_MOTION_DOT": -1e-07, "MEAN_MOTION_DDOT": 0}, "tle": {"line1": "1 36112U 09070B   25360.54379700 -.00000010  00000+0  00000+0 0  9990", "line2": "2 36112  64.8927  76.7135 0004395 164.2484 254.2411  2.13101072124755"}}, "geometry": {"type": "Point", "coordinates": [-167.82120698469885, 62.583471859810274]}}]}